[{"OBJECT_NAME":"SITRO-AIS 5 (KATYS)","OBJECT_ID":"2023-091L","EPOCH":"2026-03-09T22:36:44.932608","MEAN_MOTION":15.27079182,"ECCENTRICITY":0.00133776,"INCLINATION":97.5176,"RA_OF_ASC_NODE":132.0172,"ARG_OF_PERICENTER":94.5677,"MEAN_ANOMALY":265.709,"EPHEMERIS_TYPE":0,"CLASSIFICATION_TYPE":"U","NORAD_CAT_ID":57176,"ELEMENT_SET_NO":999,"REV_AT_EPOCH":14918,"BSTAR":0.00057530772,"MEAN_MOTION_DOT":0.00015262,"MEAN_MOTION_DDOT":0},{"OBJECT_NAME":"STARLINK-31810","OBJECT_ID":"2024-093T","EPOCH":"2026-03-09T10:20:39.916320","MEAN_MOTION":15.27570549,"ECCENTRICITY":0.00024213,"INCLINATION":43.0048,"RA_OF_ASC_NODE":210.5447,"ARG_OF_PERICENTER":282.6093,"MEAN_ANOMALY":77.4488,"EPHEMERIS_TYPE":0,"CLASSIFICATION_TYPE":"U","NORAD_CAT_ID":59799,"ELEMENT_SET_NO":999,"REV_AT_EPOCH":10265,"BSTAR":5.0108099e-5,"MEAN_MOTION_DOT":1.116e-5,"MEAN_MOTION_DDOT":0}]
